[{"OBJECT_NAME":"STARLINK-5388","OBJECT_ID":"2022-177AA","EPOCH":"2026-03-09T05:41:58.864704","MEAN_MOTION":15.02516299,"ECCENTRICITY":0.00018359,"INCLINATION":43.0043,"RA_OF_ASC_NODE":135.2216,"ARG_OF_PERICENTER":281.4975,"MEAN_ANOMALY":78.5661,"EPHEMERIS_TYPE":0,"CLASSIFICATION_TYPE":"U","NORAD_CAT_ID":54844,"ELEMENT_SET_NO":999,"REV_AT_EPOCH":17689,"BSTAR":0.00013969843,"MEAN_MOTION_DOT":1.683e-5,"MEAN_MOTION_DDOT":0},{"OBJECT_NAME":"PEGASUS DEB","OBJECT_ID":"1994-029ADD","EPOCH":"2026-03-08T10:25:15.653280","MEAN_MOTION":14.68059496,"ECCENTRICITY":0.01955808,"INCLINATION":82.165,"RA_OF_ASC_NODE":108.7718,"ARG_OF_PERICENTER":24.3577,"MEAN_ANOMALY":336.6717,"EPHEMERIS_TYPE":0,"CLASSIFICATION_TYPE":"U","NORAD_CAT_ID":24996,"ELEMENT_SET_NO":999,"REV_AT_EPOCH":48270,"BSTAR":0.0033498842,"MEAN_MOTION_DOT":0.00025801,"MEAN_MOTION_DDOT":0}]
